GSAT-29                 
1 43698U 18089A   26195.86846347  .00000075  00000+0  00000+0 0  9995
2 43698   0.0565 246.2149 0002955 199.3608 214.9248  1.00275871 28060
ES'HAIL 2               
1 43700U 18090A   26196.56214677  .00000134  00000+0  00000+0 0  9990
2 43700   0.0171  47.4652 0002212 111.6490   2.4404  1.00271094 27964
GEO-KOMPSAT-2A          
1 43823U 18100A   26195.72708625 -.00000352  00000+0  00000+0 0  9999
2 43823   0.0287 108.8702 0001961 352.7689 220.9550  1.00269956 27901
GSAT-11                 
1 43824U 18100B   26196.57170840 -.00000087  00000+0  00000+0 0  9991
2 43824   0.0514 251.1897 0007678 206.6346 115.4084  1.00271097 27763
GSAT-7A                 
1 43864U 18105A   26196.49817854  .00000017  00000+0  00000+0 0  9996
2 43864   0.0855  91.3660 0001670  19.8118  64.2529  1.00271182 27731
COSMOS 2533             
1 43867U 18107A   26196.78476098 -.00000049  00000+0  00000+0 0  9990
2 43867   0.0371 111.7068 0000785 132.4303  41.9979  1.00275050 27739
TJS-3                   
1 43874U 18110A   26196.78608697 -.00000228  00000+0  00000+0 0  9993
2 43874   2.6165  80.1459 0002550  88.8325 195.8619  1.00271702 27706
ZHONGXING-2D            
1 43920U 19001A   26196.67602206  .00000000  00000+0  00000+0 0  9990
2 43920   0.0206 262.5283 0000326  45.4054 358.9499  1.00269445 54365
HELLAS-SAT 4 & SGS-1    
1 44034U 19007A   26195.28158947  .00000146  00000+0  00000+0 0  9998
2 44034   0.0672 125.5173 0005727  21.8726 285.1324  1.00271532 27637
GSAT-31                 
1 44035U 19007B   26196.63786750  .00000115  00000+0  00000+0 0  9994
2 44035   0.0157  96.6946 0000793 133.6270 340.6566  1.00271065 27250
NUSANTARA SATU          
1 44048U 19009A   26194.52515208 -.00000239  00000+0  00000+0 0  9992
2 44048   0.0316 124.8301 0004678   6.3551 135.2754  1.00270313 27032
ZHONGXING-6C            
1 44067U 19012A   26196.72540751 -.00000347  00000+0  00000+0 0  9992
2 44067   0.0484  66.2524 0014079 344.8356 274.0336  1.00258576 27028
WGS 10 (USA 291)        
1 44071U 19014A   26195.42838587  .00000040  00000+0  00000+0 0  9991
2 44071   0.0177  45.2250 0000311 233.8921 227.6921  1.00270690 26893
TIANLIAN 2-01           
1 44076U 19017A   26196.64613632 -.00000117  00000+0  00000+0 0  9992
2 44076   0.6114  83.0541 0001489  79.7730  80.2854  1.00270875 26938
ARABSAT-6A              
1 44186U 19021A   26196.02280354  .00000144  00000+0  00000+0 0  9991
2 44186   0.0447   7.0432 0002421 247.5650  76.9528  1.00263266 26432
BEIDOU-3 IGSO-1         
1 44204U 19023A   26194.49395858 -.00000204  00000+0  00000+0 0  9997
2 44204  58.7323  37.3789 0025734 224.1077 326.8166  1.00283496  7478
BEIDOU-2 G8             
1 44231U 19027A   26196.65698824 -.00000258  00000+0  00000+0 0  9999
2 44231   1.7277  74.4887 0009698 282.1138 317.9382  1.00271527 26360
YAMAL 601               
1 44307U 19031A   26196.70929662  .00000000  00000+0  00000+0 0  9995
2 44307   0.0248  73.4939 0002359  44.5093 119.9062  1.00269411 26216
AT&T T-16               
1 44333U 19034A   26195.82414432 -.00000123  00000+0  00000+0 0  9990
2 44333   0.0157  70.7114 0000616 248.2150 169.5701  1.00268430 25917
EUTELSAT 7C             
1 44334U 19034B   26195.56032043  .00000040  00000+0  00000+0 0  9993
2 44334   0.0769 179.8524 0003130 279.4611  41.8320  1.00270205  7119
BEIDOU-3 IGSO-2         
1 44337U 19035A   26196.29549256 -.00000140  00000+0  00000+0 0  9999
2 44337  55.2501 158.6158 0039478 216.6534 142.7647  1.00257621 25948
COSMOS 2539             
1 44457U 19048A   26195.96202914  .00000072  00000+0  00000+0 0  9999
2 44457   0.0358 102.1610 0000812 356.5248 192.4498  1.00271598 25509
EDRS-C                  
1 44475U 19049A   26195.58706845 -.00000270  00000+0  00000+0 0  9991
2 44475   0.0172 104.9935 0000893  24.4612 156.8304  1.00271140 25488
INTELSAT 39 (IS-39)     
1 44476U 19049B   26194.92525137  .00000000  00000+0  00000+0 0  9992
2 44476   0.0241  49.4551 0000733 282.1376 355.2527  1.00272225 25393
AMOS-17                 
1 44479U 19050A   26195.96648431  .00000100  00000+0  00000+0 0  9996
2 44479   0.0160  21.3771 0001319  98.7093 177.6626  1.00273560 25464
AEHF-5 (USA 292)        
1 44481U 19051A   26196.62546399 -.00000266  00000+0  00000+0 0  9998
2 44481   1.4307 338.4461 0064961 357.5481 275.7031  1.00273664 25546
EUTELSAT 5 WEST B       
1 44624U 19067A   26195.62938687 -.00000051  00000+0  00000+0 0  9990
2 44624   0.0701 333.5012 0003096 138.5371  42.0158  1.00269913 24718
MEV-1                   
1 44625U 19067B   26167.92963140 -.00000149  00000+0  00000+0 0  9993
2 44625   0.8740 268.9828 0002794 179.8034 307.2103  1.00269616 61744
TJS-4                   
1 44637U 19070A   26195.70930817 -.00000175  00000+0  00000+0 0  9991
2 44637   0.1149 260.5370 0001386 318.2730  52.6242  1.00257855 24815
TIBA-1                  
1 44800U 19080A   26196.63535416  .00000146  00000+0  00000+0 0  9990
2 44800   0.0530  17.1801 0001908 109.4991  70.9951  1.00271105 24346
INMARSAT GX5            
1 44801U 19080B   26196.55928676  .00000065  00000+0  00000+0 0  9996
2 44801   0.0350   0.3430 0002271 126.3391  19.0929  1.00272859  7072
JCSAT-18 (KACIFIC 1)    
1 44868U 19091A   26196.60739123 -.00000212  00000+0  00000+0 0  9999
2 44868   0.0503 236.5864 0000490  18.6198  46.8827  1.00269210 24293
